COSMOS 2251 DEB         
1 37499U 93036BMC 25330.06151853  .00000420  00000+0  15825-3 0  9994
2 37499  74.0377 352.7237 0026536  74.2381 286.1694 14.34319510849107
COSMOS 2251 DEB         
1 37515U 93036BMU 25331.30326772  .03205678  00000+0  14964-1 0  9991
2 37515  74.0831 282.2028 0026585 170.1233 190.0525 15.79250759855430
COSMOS 2251 DEB         
1 37530U 93036BNK 25323.42927326  .00000681  00000+0  25014-3 0  9998
2 37530  74.0379  16.3332 0025343  86.1810 293.5357 14.34463157848988
COSMOS 2251 DEB         
1 37532U 93036BNM 25333.03263442  .00000836  00000+0  26059-3 0  9992
2 37532  74.0505 241.1204 0015535 343.6954  39.4360 14.42373552847189
COSMOS 2251 DEB         
1 37533U 93036BNN 25332.92845523  .00002978  00000+0  14549-2 0  9995
2 37533  74.0691 216.1485 0158680 275.8944  82.4129 14.12059795627266
COSMOS 2251 DEB         
1 37535U 93036BNQ 25333.06125273  .00004299  00000+0  93061-3 0  9991
2 37535  74.0228  99.5536 0028357 240.0434 239.1231 14.58286776851253
COSMOS 2251 DEB         
1 37537U 93036BNS 25331.27162127  .00000728  00000+0  24853-3 0  9999
2 37537  74.0110 293.6323 0049858  78.1221 282.5517 14.37456718848111
