{
  "type": "FeatureCollection",
  "features": [
    {
      "type": "Feature",
      "properties": {
        "OBJECT_NAME": "COSMOS 2251 DEB",
        "OBJECT_ID": "1993-036BMC",
        "EPOCH": "2025-11-26T01:28:35.200992",
        "MEAN_MOTION": 14.3431951,
        "ECCENTRICITY": 0.0026536,
        "INCLINATION": 74.0377,
        "RA_OF_ASC_NODE": 352.7237,
        "ARG_OF_PERICENTER": 74.2381,
        "MEAN_ANOMALY": 286.1694,
        "EPHEMERIS_TYPE": 0,
        "CLASSIFICATION_TYPE": "U",
        "NORAD_CAT_ID": 37499,
        "ELEMENT_SET_NO": 999,
        "REV_AT_EPOCH": 84910,
        "BSTAR": 0.00015825051,
        "MEAN_MOTION_DOT": 4.2e-06,
        "MEAN_MOTION_DDOT": 0,
        "norad_id": 37499,
        "name": "COSMOS 2251 DEB",
        "group": "cosmos-2251-debris",
        "longitude_deg": NaN,
        "latitude_deg": NaN,
        "alt_km": NaN,
        "orbit_class": "HEO",
        "timestamp": "2025-11-30T04:57:05.907753+00:00"
      },
      "geometry": {
        "type": "Point",
        "coordinates": [
          NaN,
          NaN
        ]
      }
    },
    {
      "type": "Feature",
      "properties": {
        "OBJECT_NAME": "COSMOS 2251 DEB",
        "OBJECT_ID": "1993-036BMU",
        "EPOCH": "2025-11-27T07:16:42.331008",
        "MEAN_MOTION": 15.79250759,
        "ECCENTRICITY": 0.00265858,
        "INCLINATION": 74.0831,
        "RA_OF_ASC_NODE": 282.2028,
        "ARG_OF_PERICENTER": 170.1233,
        "MEAN_ANOMALY": 190.0525,
        "EPHEMERIS_TYPE": 0,
        "CLASSIFICATION_TYPE": "U",
        "NORAD_CAT_ID": 37515,
        "ELEMENT_SET_NO": 999,
        "REV_AT_EPOCH": 85543,
        "BSTAR": 0.014964434,
        "MEAN_MOTION_DOT": 0.03205678,
        "MEAN_MOTION_DDOT": 0,
        "norad_id": 37515,
        "name": "COSMOS 2251 DEB",
        "group": "cosmos-2251-debris",
        "longitude_deg": NaN,
        "latitude_deg": NaN,
        "alt_km": NaN,
        "orbit_class": "HEO",
        "timestamp": "2025-11-30T04:57:05.907759+00:00"
      },
      "geometry": {
        "type": "Point",
        "coordinates": [
          NaN,
          NaN
        ]
      }
    },
    {
      "type": "Feature",
      "properties": {
        "OBJECT_NAME": "COSMOS 2251 DEB",
        "OBJECT_ID": "1993-036BNK",
        "EPOCH": "2025-11-19T10:18:09.209664",
        "MEAN_MOTION": 14.34463157,
        "ECCENTRICITY": 0.00253436,
        "INCLINATION": 74.0379,
        "RA_OF_ASC_NODE": 16.3332,
        "ARG_OF_PERICENTER": 86.181,
        "MEAN_ANOMALY": 293.5357,
        "EPHEMERIS_TYPE": 0,
        "CLASSIFICATION_TYPE": "U",
        "NORAD_CAT_ID": 37530,
        "ELEMENT_SET_NO": 999,
        "REV_AT_EPOCH": 84898,
        "BSTAR": 0.00025014259,
        "MEAN_MOTION_DOT": 6.81e-06,
        "MEAN_MOTION_DDOT": 0,
        "norad_id": 37530,
        "name": "COSMOS 2251 DEB",
        "group": "cosmos-2251-debris",
        "longitude_deg": NaN,
        "latitude_deg": NaN,
        "alt_km": NaN,
        "orbit_class": "HEO",
        "timestamp": "2025-11-30T04:57:05.907771+00:00"
      },
      "geometry": {
        "type": "Point",
        "coordinates": [
          NaN,
          NaN
        ]
      }
    },
    {
      "type": "Feature",
      "properties": {
        "OBJECT_NAME": "COSMOS 2251 DEB",
        "OBJECT_ID": "1993-036BNM",
        "EPOCH": "2025-11-29T00:46:59.614752",
        "MEAN_MOTION": 14.42373552,
        "ECCENTRICITY": 0.00155349,
        "INCLINATION": 74.0505,
        "RA_OF_ASC_NODE": 241.1204,
        "ARG_OF_PERICENTER": 343.6954,
        "MEAN_ANOMALY": 39.436,
        "EPHEMERIS_TYPE": 0,
        "CLASSIFICATION_TYPE": "U",
        "NORAD_CAT_ID": 37532,
        "ELEMENT_SET_NO": 999,
        "REV_AT_EPOCH": 84718,
        "BSTAR": 0.00026059484,
        "MEAN_MOTION_DOT": 8.36e-06,
        "MEAN_MOTION_DDOT": 0,
        "norad_id": 37532,
        "name": "COSMOS 2251 DEB",
        "group": "cosmos-2251-debris",
        "longitude_deg": NaN,
        "latitude_deg": NaN,
        "alt_km": NaN,
        "orbit_class": "HEO",
        "timestamp": "2025-11-30T04:57:05.907777+00:00"
      },
      "geometry": {
        "type": "Point",
        "coordinates": [
          NaN,
          NaN
        ]
      }
    },
    {
      "type": "Feature",
      "properties": {
        "OBJECT_NAME": "COSMOS 2251 DEB",
        "OBJECT_ID": "1993-036BNN",
        "EPOCH": "2025-11-28T22:16:58.532736",
        "MEAN_MOTION": 14.12059795,
        "ECCENTRICITY": 0.01586805,
        "INCLINATION": 74.0691,
        "RA_OF_ASC_NODE": 216.1485,
        "ARG_OF_PERICENTER": 275.8944,
        "MEAN_ANOMALY": 82.4129,
        "EPHEMERIS_TYPE": 0,
        "CLASSIFICATION_TYPE": "U",
        "NORAD_CAT_ID": 37533,
        "ELEMENT_SET_NO": 999,
        "REV_AT_EPOCH": 62726,
        "BSTAR": 0.0014548925,
        "MEAN_MOTION_DOT": 2.978e-05,
        "MEAN_MOTION_DDOT": 0,
        "norad_id": 37533,
        "name": "COSMOS 2251 DEB",
        "group": "cosmos-2251-debris",
        "longitude_deg": NaN,
        "latitude_deg": NaN,
        "alt_km": NaN,
        "orbit_class": "HEO",
        "timestamp": "2025-11-30T04:57:05.907784+00:00"
      },
      "geometry": {
        "type": "Point",
        "coordinates": [
          NaN,
          NaN
        ]
      }
    },
    {
      "type": "Feature",
      "properties": {
        "OBJECT_NAME": "COSMOS 2251 DEB",
        "OBJECT_ID": "1993-036BNQ",
        "EPOCH": "2025-11-29T01:28:12.236736",
        "MEAN_MOTION": 14.58286776,
        "ECCENTRICITY": 0.00283573,
        "INCLINATION": 74.0228,
        "RA_OF_ASC_NODE": 99.5536,
        "ARG_OF_PERICENTER": 240.0434,
        "MEAN_ANOMALY": 239.1231,
        "EPHEMERIS_TYPE": 0,
        "CLASSIFICATION_TYPE": "U",
        "NORAD_CAT_ID": 37535,
        "ELEMENT_SET_NO": 999,
        "REV_AT_EPOCH": 85125,
        "BSTAR": 0.00093060685,
        "MEAN_MOTION_DOT": 4.299e-05,
        "MEAN_MOTION_DDOT": 0,
        "norad_id": 37535,
        "name": "COSMOS 2251 DEB",
        "group": "cosmos-2251-debris",
        "longitude_deg": NaN,
        "latitude_deg": NaN,
        "alt_km": NaN,
        "orbit_class": "HEO",
        "timestamp": "2025-11-30T04:57:05.907789+00:00"
      },
      "geometry": {
        "type": "Point",
        "coordinates": [
          NaN,
          NaN
        ]
      }
    },
    {
      "type": "Feature",
      "properties": {
        "OBJECT_NAME": "COSMOS 2251 DEB",
        "OBJECT_ID": "1993-036BNS",
        "EPOCH": "2025-11-27T06:31:08.077728",
        "MEAN_MOTION": 14.37456718,
        "ECCENTRICITY": 0.00498585,
        "INCLINATION": 74.011,
        "RA_OF_ASC_NODE": 293.6323,
        "ARG_OF_PERICENTER": 78.1221,
        "MEAN_ANOMALY": 282.5517,
        "EPHEMERIS_TYPE": 0,
        "CLASSIFICATION_TYPE": "U",
        "NORAD_CAT_ID": 37537,
        "ELEMENT_SET_NO": 999,
        "REV_AT_EPOCH": 84811,
        "BSTAR": 0.00024852763,
        "MEAN_MOTION_DOT": 7.28e-06,
        "MEAN_MOTION_DDOT": 0,
        "norad_id": 37537,
        "name": "COSMOS 2251 DEB",
        "group": "cosmos-2251-debris",
        "longitude_deg": NaN,
        "latitude_deg": NaN,
        "alt_km": NaN,
        "orbit_class": "HEO",
        "timestamp": "2025-11-30T04:57:05.907796+00:00"
      },
      "geometry": {
        "type": "Point",
        "coordinates": [
          NaN,
          NaN
        ]
      }
    }
  ]
}